{"fetched_at":"2026-07-11T09:24:38.865Z","source":"https://celestrak.org/NORAD/elements/gp.php?NAME=SENTINEL&FORMAT=JSON","constellation":"sentinel-3","records":[{"OBJECT_NAME":"SENTINEL-3A","OBJECT_ID":"2016-011A","EPOCH":"2026-07-11T04:49:24.742848","CLASSIFICATION_TYPE":"U","MEAN_MOTION":14.26739077,"ECCENTRICITY":0.0001389,"INCLINATION":98.6238,"RA_OF_ASC_NODE":259.2385,"ARG_OF_PERICENTER":91.2614,"MEAN_ANOMALY":268.8726,"EPHEMERIS_TYPE":0,"NORAD_CAT_ID":41335,"ELEMENT_SET_NO":999,"REV_AT_EPOCH":54148,"BSTAR":0.000035178,"MEAN_MOTION_DOT":4.1e-7,"MEAN_MOTION_DDOT":0},{"OBJECT_NAME":"SENTINEL-3B","OBJECT_ID":"2018-039A","EPOCH":"2026-07-11T04:10:42.644352","CLASSIFICATION_TYPE":"U","MEAN_MOTION":14.26741288,"ECCENTRICITY":0.0001055,"INCLINATION":98.6238,"RA_OF_ASC_NODE":259.361,"ARG_OF_PERICENTER":120.7417,"MEAN_ANOMALY":239.3868,"EPHEMERIS_TYPE":0,"NORAD_CAT_ID":43437,"ELEMENT_SET_NO":999,"REV_AT_EPOCH":42754,"BSTAR":0.000033847,"MEAN_MOTION_DOT":3.8e-7,"MEAN_MOTION_DDOT":0}]}
